#aV2021  3  4  0  0  0.00000000     288 DD+AD WGS84 FIT  NGA
## 2147 345600.00000000   300.00000000 59277 0.0000000000000
+   32     1  2  3  4  5  6  7  8  9 10 11 12 13 14 15 16 17
+         18 19 20 21 22 23 24 25 26 27 28 29 30 31 32  0  0
+          0  0  0  0  0  0  0  0  0  0  0  0  0  0  0  0  0
+          0  0  0  0  0  0  0  0  0  0  0  0  0  0  0  0  0
+          0  0  0  0  0  0  0  0  0  0  0  0  0  0  0  0  0
++         2  2  2  2  2  2  2  2  2  2  2  2  2  2  2  2  2
++         2  2  2  2  2  2  2  2  2  2  2  2  2  2  2  0  0
++         0  0  0  0  0  0  0  0  0  0  0  0  0  0  0  0  0
++         0  0  0  0  0  0  0  0  0  0  0  0  0  0  0  0  0
++         0  0  0  0  0  0  0  0  0  0  0  0  0  0  0  0  0
%c cc cc ccc ccc cccc cccc cccc cccc ccccc ccccc ccccc ccccc
%c cc cc ccc ccc cccc cccc cccc cccc ccccc ccccc ccccc ccccc
%f  0.0000000  0.000000000  0.00000000000  0.000000000000000
%f  0.0000000  0.000000000  0.00000000000  0.000000000000000
%i    0    0    0    0      0      0      0      0         0
%i    0    0    0    0      0      0      0      0         0
/*      NGA, ST. LOUIS,MO.                                  
/*   EPHEMERIS COMPUTED FROM 2 DAYS OF DATA                 
/*   EPOCHA v5 SMOOTHER                                     
/*   G2139 IERS2010 SATAF SATAPC                            
*  2021  3  4 14 50  0.00000000
P  1 -20964.635828 -14479.266145  -8349.799758    748.784769                    
V  1  10014.887480   2295.174019 -29674.446236     -0.083863                    
P  2   -517.583660  15865.860254  21952.153848   -582.796990                    
V  2 -25247.679087  -7466.702256   4984.316487     -0.037891                    
P  3 -12784.214777 -18223.937056  14488.175486    -98.835859                    
V  3   -851.310891 -18552.974698 -23853.373415     -0.103883                    
P  4 -12497.599714  -9415.746330  21472.654167   -184.106527                    
V  4  21616.121420 -16593.880029   5253.971187     -0.023799                    
P  5   3667.725964  26144.554432   1642.330184    -35.287449                    
V  5  -3516.230991  -1664.619271  31659.641517     -0.010454                    
P  6 -14321.143183   9060.738941  20531.577283     -0.696301                    
V  6 -23762.773955 -10195.369102 -12059.337147      0.016268                    
P  7 -25473.549251  -6268.679449  -5242.238523     78.780720                    
V  7  -5494.695071  -5083.114442  30309.712746      0.127548                    
P  8  -5806.627230 -14388.956163 -21515.805686    -12.461043                    
V  8  21492.194133 -16921.253852   5809.365251     -0.014454                    
P  9 -20615.144119   1695.888442  16611.576430   -328.173381                    
V  9  15141.832408 -14996.161025  20225.569220     -0.033224                    
P 10  12477.980056 -11256.681779 -20388.769678    -73.950126                    
V 10   4979.149946  25735.388583 -11359.287049     -0.080035                    
P 11 -16277.742342 -11861.444377 -17592.933983     -8.267238                    
V 11  21375.063800  -4825.755997 -17328.092266      0.106236                    
P 12   9443.740397  22014.928172  11391.313825     -9.239121                    
V 12   -855.289817  14881.416654 -27295.335614     -0.052978                    
P 13  -5271.115831  18181.661547 -18713.436857    103.922051                    
V 13 -20857.475807  10928.721964  16734.390040      0.043946                    
P 14 -13631.477184   9606.072938 -20681.705048     99.515336                    
V 14  -3576.568165 -26018.107146  -9743.357323      0.008728                    
P 15   8253.388005  14159.454545 -21215.924854   -165.422286                    
V 15 -19116.533966  18071.026585   5062.914799      0.025858                    
P 16    843.319706 -26032.011180   3456.577618   -288.920672                    
V 16   3039.974138   4571.651268  31962.708894     -0.057716                    
P 17 -22307.564542  14246.007946  -1735.842424    404.072705                    
V 17   1002.483974  -3314.184019 -32143.661148      0.063691                    
P 18  24768.398996   3712.693256  -8934.900924    349.562730                    
V 18   9522.281482   6546.812623  29074.292089      0.011923                    
P 19 -19617.670456  16860.098030   5517.675178    -30.773201                    
V 19  -7411.979993   2090.704791 -31238.542870      0.049996                    
P 20  16501.716419   1732.227716 -20836.239917    524.414471                    
V 20   6877.971741  25479.238536   7311.906132     -0.001968                    
P 21 -16089.990454 -15418.202092 -14049.843634    100.428022                    
V 21  18718.231458   3581.132132 -23691.486329      0.030815                    
P 22 -10745.536547 -23592.412634   6382.937549   -667.467363                    
V 22   1333.758900  -8417.777512 -29621.156644      0.078304                    
P 23  15420.406917    845.378658 -21632.891692    118.135682                    
V 23   4399.015284  27054.647261   4156.680802     -0.005168                    
P 24  17645.618209  15586.263559 -12906.597544      1.553800                    
V 24 -15943.627203  -2379.322356 -24751.580948     -0.005098                    
P 25  15207.801116   9026.601512  19641.260884     92.205617                    
V 25   2693.012140  25303.317857 -13263.299247      0.075393                    
P 26   5789.063895 -21945.816212  13523.274142     53.315995                    
V 26   6062.636769  16562.702517  24451.568760      0.054034                    
P 27   6909.932422 -19660.042585 -16407.540487    -87.623226                    
V 27  17224.795816 -11507.086173  21609.991381     -0.072676                    
P 28 -12447.016292  12617.932526 -19285.352153    607.104064                    
V 28  -2521.207211 -25510.306746 -14460.915392     -0.056005                    
P 29  20571.632056   -580.661461  16770.442856   -305.729404                    
V 29 -16838.948315  13123.207648  21016.949139     -0.069310                    
P 30 -21116.993789   3620.849978 -15791.499310   -393.498635                    
V 30 -17616.283018  -9980.140611  20978.242879     -0.056148                    
P 31  12381.845190 -10767.723727  20890.956244   -103.591457                    
V 31  24292.744759  10933.556637  -8271.353359     -0.022826                    
P 32  21045.275072 -16007.206754  -1074.415418     20.457839                    
V 32    767.689919   3326.134172 -31755.909255      0.009047                    
EOF
